[{"OBJECT_NAME":"SPHEREX (MIDEX 9)","OBJECT_ID":"2025-047E","EPOCH":"2026-03-09T22:30:11.286432","MEAN_MOTION":14.73844034,"ECCENTRICITY":0.00111067,"INCLINATION":97.9571,"RA_OF_ASC_NODE":255.6032,"ARG_OF_PERICENTER":146.1567,"MEAN_ANOMALY":214.0352,"EPHEMERIS_TYPE":0,"CLASSIFICATION_TYPE":"U","NORAD_CAT_ID":63182,"ELEMENT_SET_NO":999,"REV_AT_EPOCH":5342,"BSTAR":0.00026584435,"MEAN_MOTION_DOT":1.693e-5,"MEAN_MOTION_DDOT":0},{"OBJECT_NAME":"THORAD AGENA D DEB","OBJECT_ID":"1969-082BW","EPOCH":"2026-03-09T15:37:14.797344","MEAN_MOTION":14.70117084,"ECCENTRICITY":0.0024365,"INCLINATION":69.9601,"RA_OF_ASC_NODE":165.4322,"ARG_OF_PERICENTER":333.8348,"MEAN_ANOMALY":26.1563,"EPHEMERIS_TYPE":0,"CLASSIFICATION_TYPE":"U","NORAD_CAT_ID":4207,"ELEMENT_SET_NO":999,"REV_AT_EPOCH":95231,"BSTAR":0.000813,"MEAN_MOTION_DOT":4.846e-5,"MEAN_MOTION_DDOT":0}]
